IRIDIUM 26              
1 24903U 97043A   25328.73753670  .00000510  00000+0  16441-3 0  9993
2 24903  86.3974  43.1274 0001966  95.2939 264.8483 14.37307132479801
IRIDIUM 22              
1 24907U 97043E   25328.73111130  .00000456  00000+0  14985-3 0  9996
2 24907  86.3979  46.8078 0002114  98.1310 262.0126 14.36103037479815
DUMMY MASS 1            
1 24925U 97048A   25328.84023668  .00000608  00000+0  64571-4 0  9997
2 24925  86.3351  60.9876 0004588 309.9472  50.1349 14.87159183529000
DUMMY MASS 2            
1 24926U 97048B   25328.82921304  .00000590  00000+0  62901-4 0  9995
2 24926  86.3352  62.6306 0005724 323.8151  36.2686 14.86909755528770
IRIDIUM 29              
1 24944U 97051A   25328.76562407  .00000614  00000+0  20199-3 0  9996
2 24944  86.3950  76.4894 0002278  96.5086 263.6371 14.36638858476329
IRIDIUM 33              
1 24946U 97051C   25328.78609319  .00000467  00000+0  15727-3 0  9991
2 24946  86.3867  75.7566 0005782 274.0315  86.0221 14.35017881475772
IRIDIUM 28              
1 24948U 97051E   25328.77708868  .00000564  00000+0  18178-3 0  9992
2 24948  86.3958  73.9079 0001549  94.3441 265.7934 14.37539587476912
IRIDIUM 36              
1 24967U 97056C   25328.92412808  .00000576  00000+0  18486-3 0  9996
2 24967  86.3946 105.4755 0001920  98.0533 262.0883 14.37759871475314
